ALOS-2                  
1 39766U 14029A   26195.59810841  .00000642  00000+0  92798-4 0  9996
2 39766  97.9234 292.3701 0001586  91.7867 268.3527 14.79472949655633
KAZEOSAT 2              
1 40010U 14033A   26195.57805380  .00000800  00000+0  98440-4 0  9991
2 40010  97.5393  33.7415 0007381 221.6939 138.3715 14.85501262653025
HODOYOSHI-4             
1 40011U 14033B   26195.60197435  .00001204  00000+0  13572-3 0  9992
2 40011  97.5452  19.1026 0022633 211.5594 148.4267 14.88189368652889
DEIMOS-2                
1 40013U 14033D   26195.64769162  .00000570  00000+0  58890-4 0  9998
2 40013  97.5796  69.1680 0000873 104.6744 255.4573 14.93792983641824
HODOYOSHI-3             
1 40015U 14033F   26195.39952178  .00000463  00000+0  59388-4 0  9997
2 40015  97.6444 357.3495 0031288 264.6548  95.1098 14.85436366651661
SPOT 7                  
1 40053U 14034A   26195.64545878  .00000453  00000+0  10165-3 0  9991
2 40053  98.0622 257.4280 0001596  94.0642 266.0741 14.60981596641146
SKYSAT-B                
1 40072U 14037D   26195.42549907  .00000616  00000+0  73626-4 0  9991
2 40072  98.3853 155.9467 0005494 174.9814 185.1457 14.88091067650011
WORLDVIEW-3 (WV-3)      
1 40115U 14048A   26195.59075669  .00000410  00000+0  54236-4 0  9996
2 40115  97.8557 270.0444 0001257 157.3649 202.7621 14.85063655645979
GAOFEN-2                
1 40118U 14049A   26195.60855487  .00001007  00000+0  13703-3 0  9992
2 40118  98.0104 259.7881 0008225 136.2043 223.9823 14.80929214643297
YAOGAN-21               
1 40143U 14053A   26195.62742391  .00006001  00000+0  23056-3 0  9997
2 40143  97.1462 234.6893 0007859  10.3614 349.7786 15.26759076659149
YAOGAN-22               
1 40275U 14063A   26195.41195969 -.00000071  00000+0 -63354-4 0  9993
2 40275 100.7761 347.1414 0006850 126.7841 233.3899 13.15531565563392
ASNARO                  
1 40298U 14070A   26195.61763587  .00007403  00000+0  34825-3 0  9999
2 40298  97.3454 270.9952 0006736  89.8961 270.3046 15.19829201648170
YAOGAN-24               
1 40310U 14072A   26195.60283214  .00000282  00000+0  48513-4 0  9997
2 40310  98.1518 333.1741 0014565 171.5037 188.6422 14.76117546627760
CBERS 4                 
1 40336U 14079A   26195.63911150  .00000193  00000+0  81882-4 0  9999
2 40336  98.3524 251.6074 0000839  52.5233 307.6030 14.35516400607892
YAOGAN-26               
1 40362U 14088A   26195.60816367  .00011344  00000+0  21550-3 0  9994
2 40362  97.0638 195.1955 0002014 345.0451  15.0740 15.48425165641946
SMAP                    
1 40376U 15003A   26195.56696481  .00000198  00000+0  47413-4 0  9997
2 40376  98.1284 202.2745 0001595  95.1428 264.9956 14.63388863611622
KOMPSAT-3A              
1 40536U 15014A   26195.59643694  .00020395  00000+0  28044-3 0  9997
2 40536  97.6885 188.9925 0056346  77.7875 282.9681 15.55401265626071
SENTINEL-2A             
1 40697U 15028A   26195.62728307  .00000147  00000+0  72840-4 0  9996
2 40697  98.5685 270.0883 0001279  93.8852 266.2477 14.30814633577658
GAOFEN-8                
1 40701U 15030A   26195.58790799  .00014061  00000+0  28047-3 0  9993
2 40701  97.6888  30.6218 0010009  97.8856 262.3530 15.46931064615689
CARBONITE 1 (CBNT-1)    
1 40718U 15032D   26195.56470671  .00000382  00000+0  52401-4 0  9998
2 40718  97.6512  12.4873 0013820 199.3717 160.6974 14.83664695593404
YAOGAN-27               
1 40878U 15040A   26195.62410649  .00000351  00000+0  10346-2 0  9996
2 40878 100.1162 180.8176 0008515 146.3074 213.8582 13.16072828521279
GAOFEN-9 01             
1 40894U 15047A   26195.59298201  .00000508  00000+0  68442-4 0  9991
2 40894  97.6271 230.0413 0028505  52.3892 307.9904 14.82934474584253
YAOGAN-28               
1 41026U 15064A   26195.63820330  .00004026  00000+0  15091-3 0  9997
2 41026  97.3107 333.3512 0012067  94.8895 265.3722 15.27755686594873
YAOGAN-29               
1 41038U 15069A   26195.63711747  .00000491  00000+0  66875-4 0  9995
2 41038  98.0020 224.3117 0000757  13.8036 346.3198 14.83106673574691
KENT RIDGE 1            
1 41167U 15077B   26195.27312472  .00002444  00000+0  68866-4 0  9991
2 41167  14.9803  64.5207 0008299 262.2466  97.6913 15.23280956585235
GAOFEN-4                
1 41194U 15083A   26194.68502446 -.00000340  00000+0  00000+0 0  9999
2 41194   0.4223  83.7871 0003940 124.9375  75.1281  1.00274923 38792
JASON-3                 
1 41240U 16002A   26195.57557489 -.00000027  00000+0  13920-3 0  9990
2 41240  66.0416  68.2551 0008185 271.0280  88.9801 12.87628593490777
SENTINEL-3A             
1 41335U 16011A   26195.63733864  .00000047  00000+0  37374-4 0  9996
2 41335  98.6238 262.6250 0001365  90.3313 269.8024 14.26739689541973
ZIYUAN 3-02 (ZY 3-02)   
1 41556U 16033A   26195.61768671  .00003021  00000+0  13733-3 0  9994
2 41556  97.3830 270.8644 0014018 186.8759 173.2287 15.21431021562151
CARTOSAT-2C             
1 41599U 16040A   26195.59186611  .00002742  00000+0  13315-3 0  9999
2 41599  97.4473 255.1907 0009619  47.1228 313.0812 15.19261995557870
