OBJECT_NAME,OBJECT_ID,EPOCH,MEAN_MOTION,ECCENTRICITY,INCLINATION,RA_OF_ASC_NODE,ARG_OF_PERICENTER,MEAN_ANOMALY,EPHEMERIS_TYPE,CLASSIFICATION_TYPE,NORAD_CAT_ID,ELEMENT_SET_NO,REV_AT_EPOCH,BSTAR,MEAN_MOTION_DOT,MEAN_MOTION_DDOT
ALOS-2,2014-029A,2026-07-14T14:21:16.566624,14.79472949,.00015863,97.9234,292.3701,91.7867,268.3527,0,U,39766,999,65563,.92798281E-4,.642E-5,0
KAZEOSAT 2,2014-033A,2026-07-14T13:52:23.848320,14.85501262,.00073812,97.5393,33.7415,221.6939,138.3715,0,U,40010,999,65302,.98439922E-4,.8E-5,0
HODOYOSHI-4,2014-033B,2026-07-14T14:26:50.583840,14.88189368,.0022633,97.5452,19.1026,211.5594,148.4267,0,U,40011,999,65288,.13572157E-3,.1204E-4,0
DEIMOS-2,2014-033D,2026-07-14T15:32:40.555968,14.93792983,.00008736,97.5796,69.1680,104.6744,255.4573,0,U,40013,999,64182,.5888976E-4,.57E-5,0
HODOYOSHI-3,2014-033F,2026-07-14T09:35:18.681792,14.85436366,.00312882,97.6444,357.3495,264.6548,95.1098,0,U,40015,999,65166,.59388268E-4,.463E-5,0
SPOT 7,2014-034A,2026-07-14T15:29:27.638592,14.60981596,.00015968,98.0622,257.4280,94.0642,266.0741,0,U,40053,999,64114,.10164775E-3,.453E-5,0
SKYSAT-B,2014-037D,2026-07-14T10:12:43.119648,14.88091067,.00054947,98.3853,155.9467,174.9814,185.1457,0,U,40072,999,65001,.7362566E-4,.616E-5,0
WORLDVIEW-3 (WV-3),2014-048A,2026-07-14T14:10:41.378016,14.85063655,.0001257,97.8557,270.0444,157.3649,202.7621,0,U,40115,999,64597,.54236129E-4,.41E-5,0
GAOFEN-2,2014-049A,2026-07-14T14:36:19.140768,14.80929214,.0008225,98.0104,259.7881,136.2043,223.9823,0,U,40118,999,64329,.1370276E-3,.1007E-4,0
YAOGAN-21,2014-053A,2026-07-14T15:03:29.425824,15.26759076,.0007859,97.1462,234.6893,10.3614,349.7786,0,U,40143,999,65914,.23056198E-3,.6001E-4,0
YAOGAN-22,2014-063A,2026-07-14T09:53:13.317216,13.15531565,.00068506,100.7761,347.1414,126.7841,233.3899,0,U,40275,999,56339,-.6335426E-4,-.71E-6,0
ASNARO,2014-070A,2026-07-14T14:49:23.739168,15.19829201,.00067368,97.3454,270.9952,89.8961,270.3046,0,U,40298,999,64817,.34824554E-3,.7403E-4,0
YAOGAN-24,2014-072A,2026-07-14T14:28:04.696896,14.76117546,.00145657,98.1518,333.1741,171.5037,188.6422,0,U,40310,999,62776,.48512579E-4,.282E-5,0
CBERS 4,2014-079A,2026-07-14T15:20:19.233600,14.35516400,.00008397,98.3524,251.6074,52.5233,307.6030,0,U,40336,999,60789,.81881765E-4,.193E-5,0
YAOGAN-26,2014-088A,2026-07-14T14:35:45.341088,15.48425165,.00020143,97.0638,195.1955,345.0451,15.0740,0,U,40362,999,64194,.2155028E-3,.11344E-3,0
SMAP,2015-003A,2026-07-14T13:36:25.759584,14.63388863,.00015955,98.1284,202.2745,95.1428,264.9956,0,U,40376,999,61162,.47412673E-4,.198E-5,0
KOMPSAT-3A,2015-014A,2026-07-14T14:18:52.151616,15.55401265,.00563462,97.6885,188.9925,77.7875,282.9681,0,U,40536,999,62607,.28044452E-3,.20395E-3,0
SENTINEL-2A,2015-028A,2026-07-14T15:03:17.257248,14.30814633,.00012792,98.5685,270.0883,93.8852,266.2477,0,U,40697,999,57765,.72840126E-4,.147E-5,0
GAOFEN-8,2015-030A,2026-07-14T14:06:35.250336,15.46931064,.00100099,97.6888,30.6218,97.8856,262.3530,0,U,40701,999,61568,.28047081E-3,.14061E-3,0
CARBONITE 1 (CBNT-1),2015-032D,2026-07-14T13:33:10.659744,14.83664695,.001382,97.6512,12.4873,199.3717,160.6974,0,U,40718,999,59340,.52400839E-4,.382E-5,0
YAOGAN-27,2015-040A,2026-07-14T14:58:42.800736,13.16072828,.00085152,100.1162,180.8176,146.3074,213.8582,0,U,40878,999,52127,.10345707E-2,.351E-5,0
GAOFEN-9 01,2015-047A,2026-07-14T14:13:53.645664,14.82934474,.00285059,97.6271,230.0413,52.3892,307.9904,0,U,40894,999,58425,.68441522E-4,.508E-5,0
YAOGAN-28,2015-064A,2026-07-14T15:19:00.765120,15.27755686,.00120673,97.3107,333.3512,94.8895,265.3722,0,U,41026,999,59487,.15090519E-3,.4026E-4,0
YAOGAN-29,2015-069A,2026-07-14T15:17:26.949408,14.83106673,.00007573,98.0020,224.3117,13.8036,346.3198,0,U,41038,999,57469,.66874753E-4,.491E-5,0
KENT RIDGE 1,2015-077B,2026-07-14T06:33:17.975808,15.23280956,.00082992,14.9803,64.5207,262.2466,97.6913,0,U,41167,999,58523,.68866126E-4,.2444E-4,0
GAOFEN-4,2015-083A,2026-07-13T16:26:26.113344,1.00274923,.00039405,0.4223,83.7871,124.9375,75.1281,0,U,41194,999,3879,0,-.34E-5,0
JASON-3,2016-002A,2026-07-14T13:48:49.670496,12.87628593,.0008185,66.0416,68.2551,271.0280,88.9801,0,U,41240,999,49077,.13920424E-3,-.27E-6,0
SENTINEL-3A,2016-011A,2026-07-14T15:17:46.058496,14.26739689,.00013654,98.6238,262.6250,90.3313,269.8024,0,U,41335,999,54197,.37373875E-4,.47E-6,0
ZIYUAN 3-02 (ZY 3-02),2016-033A,2026-07-14T14:49:28.131744,15.21431021,.0014018,97.3830,270.8644,186.8759,173.2287,0,U,41556,999,56215,.13732642E-3,.3021E-4,0
CARTOSAT-2C,2016-040A,2026-07-14T14:12:17.231904,15.19261995,.00096195,97.4473,255.1907,47.1228,313.0812,0,U,41599,999,55787,.13315443E-3,.2742E-4,0
